IRIDIUM 171             
1 43929U 19002H   25054.89813468  .00000497  00000+0  17041-3 0  9997
2 43929  86.4030 193.6876 0001855  83.4619 276.6788 14.34217724320408
IRIDIUM 170             
1 43930U 19002J   25054.87644232  .00002476  00000+0  38869-3 0  9998
2 43930  86.6143 193.4719 0002496  91.8476 268.3027 14.72245316328881
IRIDIUM 167             
1 43931U 19002K   25054.89179432  .00000021  00000+0  28817-6 0  9995
2 43931  86.4024 193.4556 0002299  86.1637 273.9822 14.34217298320405
IRIDIUM 178             
1 56729U 23068V   25054.96276245  .00001185  00000+0  15253-3 0  9998
2 56729  86.5767 225.2988 0001490  77.1496 282.9892 14.80232327 95628
IRIDIUM 179             
1 56730U 23068W   25054.75452738  .00000174  00000+0  19410-4 0  9997
2 56730  86.6759 232.6855 0001796  92.3192 267.8236 14.80221578 95594
